$$SOE
2461302.500000000, A.D. 2026-Sep-19 00:00:00.0000, -4.133369357233672E+08, -2.272482055148871E+08, -8.070939738213764E+07,
2461309.500000000, A.D. 2026-Sep-26 00:00:00.0000, -4.078374280617226E+08, -2.353688099896723E+08, -8.112995083525318E+07,
2461316.500000000, A.D. 2026-Oct-03 00:00:00.0000, -4.021564255746241E+08, -2.433846686369614E+08, -8.151439669320332E+07,
2461323.500000000, A.D. 2026-Oct-10 00:00:00.0000, -3.962956295096546E+08, -2.512917165259327E+08, -8.186239615121776E+07,
2461330.500000000, A.D. 2026-Oct-17 00:00:00.0000, -3.902568269482957E+08, -2.590858933751385E+08, -8.217362151712385E+07,
2461337.500000000, A.D. 2026-Oct-24 00:00:00.0000, -3.840418920277818E+08, -2.667631450520902E+08, -8.244775655208182E+07,
2461344.500000000, A.D. 2026-Oct-31 00:00:00.0000, -3.776527870741896E+08, -2.743194253065328E+08, -8.268449684281129E+07,
2461351.500000000, A.D. 2026-Nov-07 00:00:00.0000, -3.710915633051122E+08, -2.817506976653378E+08, -8.288355023011103E+07,
2461358.500000000, A.D. 2026-Nov-14 00:00:00.0000, -3.643603608981484E+08, -2.890529366034466E+08, -8.304463723920609E+07,
2461365.500000000, A.D. 2026-Nov-21 00:00:00.0000, -3.574614102334449E+08, -2.962221273107101E+08, -8.316749128949711E+07,
2461372.500000000, A.D. 2026-Nov-28 00:00:00.0000, -3.503970353046531E+08, -3.032542670650327E+08, -8.325185883762504E+07,
2461379.500000000, A.D. 2026-Dec-05 00:00:00.0000, -3.431696556760881E+08, -3.101453688711626E+08, -8.329749983947241E+07,
2461386.500000000, A.D. 2026-Dec-12 00:00:00.0000, -3.357817868187402E+08, -3.168914642561671E+08, -8.330418829175843E+07,
2461393.500000000, A.D. 2026-Dec-19 00:00:00.0000, -3.282360407087659E+08, -3.234886052161987E+08, -8.327171267889448E+07,
2461400.500000000, A.D. 2026-Dec-26 00:00:00.0000, -3.205351268263450E+08, -3.299328661838031E+08, -8.319987638219739E+07,
2461407.500000000, A.D. 2027-Jan-02 00:00:00.0000, -3.126818532746296E+08, -3.362203462085861E+08, -8.308849809185065E+07,
2461414.500000000, A.D. 2027-Jan-09 00:00:00.0000, -3.046791278980818E+08, -3.423471713333904E+08, -8.293741223045312E+07,
2461421.500000000, A.D. 2027-Jan-16 00:00:00.0000, -2.965299593617970E+08, -3.483094971593609E+08, -8.274646939052136E+07,
2461428.500000000, A.D. 2027-Jan-23 00:00:00.0000, -2.882374581429993E+08, -3.541035116413739E+08, -8.251553679318643E+07,
2461435.500000000, A.D. 2027-Jan-30 00:00:00.0000, -2.798048372441142E+08, -3.597254381631896E+08, -8.224449878895551E+07,
2461442.500000000, A.D. 2027-Feb-06 00:00:00.0000, -2.712354121997126E+08, -3.651715385535915E+08, -8.193325741144168E+07,
2461449.500000000, A.D. 2027-Feb-13 00:00:00.0000, -2.625326008343942E+08, -3.704381148244837E+08, -8.158173284176038E+07,
2461456.500000000, A.D. 2027-Feb-20 00:00:00.0000, -2.536999251313002E+08, -3.755215104217248E+08, -8.118986363077964E+07,
2461463.500000000, A.D. 2027-Feb-27 00:00:00.0000, -2.447410138103686E+08, -3.804181142022133E+08, -8.075760706923784E+07,
2461470.500000000, A.D. 2027-Mar-06 00:00:00.0000, -2.356596025932564E+08, -3.851243652145388E+08, -8.028493982475983E+07,
2461477.500000000, A.D. 2027-Mar-13 00:00:00.0000, -2.264595337492422E+08, -3.896367562325112E+08, -7.977185853037898E+07,
2461484.500000000, A.D. 2027-Mar-20 00:00:00.0000, -2.171447560440440E+08, -3.939518368746125E+08, -7.921838028788650E+07,
2461491.500000000, A.D. 2027-Mar-27 00:00:00.0000, -2.077193248814957E+08, -3.980662168575734E+08, -7.862454314850836E+07,
2461498.500000000, A.D. 2027-Apr-03 00:00:00.0000, -1.981874024276789E+08, -4.019765694319918E+08, -7.799040659308448E+07,
2461505.500000000, A.D. 2027-Apr-10 00:00:00.0000, -1.885532576498181E+08, -4.056796349773265E+08, -7.731605201541480E+07,
2461512.500000000, A.D. 2027-Apr-17 00:00:00.0000, -1.788212662422243E+08, -4.091722247702514E+08, -7.660158321169648E+07,
2461519.500000000, A.D. 2027-Apr-24 00:00:00.0000, -1.689959103544881E+08, -4.124512249869569E+08, -7.584712688763955E+07,
2461526.500000000, A.D. 2027-May-01 00:00:00.0000, -1.590817778162153E+08, -4.155136009089285E+08, -7.505283320726302E+07,
2461533.500000000, A.D. 2027-May-08 00:00:00.0000, -1.490835605443410E+08, -4.183564005803323E+08, -7.421887634891212E+07,
2461540.500000000, A.D. 2027-May-15 00:00:00.0000, -1.390060536228870E+08, -4.209767569590586E+08, -7.334545485154158E+07,
2461547.500000000, A.D. 2027-May-22 00:00:00.0000, -1.288541566112080E+08, -4.233718911476352E+08, -7.243279181773087E+07,
2461554.500000000, A.D. 2027-May-29 00:00:00.0000, -1.186328737167833E+08, -4.255391181675169E+08, -7.148113539956266E+07,
2461561.500000000, A.D. 2027-Jun-05 00:00:00.0000, -1.083473119406247E+08, -4.274758521405829E+08, -7.049075939100027E+07,
2461568.500000000, A.D. 2027-Jun-12 00:00:00.0000, -9.800267919598366E+07, -4.291796104402155E+08, -6.946196370538270E+07,
2461575.500000000, A.D. 2027-Jun-19 00:00:00.0000, -8.760428272413020E+07, -4.306480177399246E+08, -6.839507478183284E+07,
2461582.500000000, A.D. 2027-Jun-26 00:00:00.0000, -7.715752752020189E+07, -4.318788102131902E+08, -6.729044596526045E+07,
2461589.500000000, A.D. 2027-Jul-03 00:00:00.0000, -6.666791462920065E+07, -4.328698398683413E+08, -6.614845786921033E+07,
2461596.500000000, A.D. 2027-Jul-10 00:00:00.0000, -5.614103926757314E+07, -4.336190790020444E+08, -6.496951872229660E+07,
2461603.500000000, A.D. 2027-Jul-17 00:00:00.0000, -4.558258872697730E+07, -4.341246248028568E+08, -6.375406470302615E+07,
2461610.500000000, A.D. 2027-Jul-24 00:00:00.0000, -3.499833989782325E+07, -4.343847041599783E+08, -6.250256028079146E+07,
2461617.500000000, A.D. 2027-Jul-31 00:00:00.0000, -2.439415599606366E+07, -4.343976784331370E+08, -6.121549857961801E+07,
2461624.500000000, A.D. 2027-Aug-07 00:00:00.0000, -1.377598268946685E+07, -4.341620470220398E+08, -5.989340164999342E+07,
2461631.500000000, A.D. 2027-Aug-14 00:00:00.0000, -3.149845920242672E+06, -4.336764499770302E+08, -5.853682045604265E+07,
2461638.500000000, A.D. 2027-Aug-21 00:00:00.0000, 7.478149198947592E+06, -4.329396730021975E+08, -5.714633490731865E+07,
2461645.500000000, A.D. 2027-Aug-28 00:00:00.0000, 1.810182185139270E+07, -4.319506536357337E+08, -5.572255414959455E+07,
2461652.500000000, A.D. 2027-Sep-04 00:00:00.0000, 2.871492016746363E+07, -4.307084860936632E+08, -5.426611680003196E+07,
2461659.500000000, A.D. 2027-Sep-11 00:00:00.0000, 3.931112566763256E+07, -4.292124254254858E+08, -5.277769105089635E+07,
2461666.500000000, A.D. 2027-Sep-18 00:00:00.0000, 4.988405763242136E+07, -4.274618916180699E+08, -5.125797470525292E+07,
2461673.500000000, A.D. 2027-Sep-25 00:00:00.0000, 6.042727762927251E+07, -4.254564737108027E+08, -4.970769517009342E+07,
2461680.500000000, A.D. 2027-Oct-02 00:00:00.0000, 7.093429427185938E+07, -4.231959338790095E+08, -4.812760940969083E+07,
2461687.500000000, A.D. 2027-Oct-09 00:00:00.0000, 8.139856823440488E+07, -4.206802114742703E+08, -4.651850385991189E+07,
2461694.500000000, A.D. 2027-Oct-16 00:00:00.0000, 9.181351758384123E+07, -4.179094270610584E+08, -4.488119431227472E+07,
2461701.500000000, A.D. 2027-Oct-23 00:00:00.0000, 1.021725236881327E+08, -4.148838864408035E+08, -4.321652579066962E+07,
2461708.500000000, A.D. 2027-Oct-30 00:00:00.0000, 1.124689380718909E+08, -4.116040840387421E+08, -4.152537240374315E+07,
2461715.500000000, A.D. 2027-Nov-06 00:00:00.0000, 1.226960890498874E+08, -4.080707045100706E+08, -3.980863697227407E+07,
2461722.500000000, A.D. 2027-Nov-13 00:00:00.0000, 1.328472861451834E+08, -4.042846246234962E+08, -3.806725041706789E+07,
2461729.500000000, A.D. 2027-Nov-20 00:00:00.0000, 1.429158251859020E+08, -4.002469175878712E+08, -3.630217135018098E+07,
2461736.500000000, A.D. 2027-Nov-27 00:00:00.0000, 1.528949956911717E+08, -3.959588568383554E+08, -3.451438577410465E+07,
2461743.500000000, A.D. 2027-Dec-04 00:00:00.0000, 1.627780885155647E+08, -3.914219183509335E+08, -3.270490662773642E+07,
2461750.500000000, A.D. 2027-Dec-11 00:00:00.0000, 1.725584031935961E+08, -3.866377824338433E+08, -3.087477320700714E+07,
2461757.500000000, A.D. 2027-Dec-18 00:00:00.0000, 1.822292552496511E+08, -3.816083353216172E+08, -2.902505051290441E+07,
2461764.500000000, A.D. 2027-Dec-25 00:00:00.0000, 1.917839836130394E+08, -3.763356705614431E+08, -2.715682854076123E+07,
2461771.500000000, A.D. 2028-Jan-01 00:00:00.0000, 2.012159581647502E+08, -3.708220901642638E+08, -2.527122151302582E+07,
$$EOE